start=new Date('2021-09-13T00:00:00.000Z').valueOf();
sats=[{"RCS_SIZE":"LARGE","TLE_LINE1":"1 44963U 20001BB  21255.87534987  .00003495  00000-0  24417-3 0  9997","MEAN_ELEMENT_THEORY":"SGP4","FILE":"3114195","PERIOD":"95.503","SITE":"AFETR","OBJECT_NAME":"STARLINK-1085","REV_AT_EPOCH":"9416","EPHEMERIS_TYPE":"0","PERIAPSIS":"541.961","DECAY_DATE":null,"INCLINATION":"52.9996","MEAN_MOTION_DDOT":"0.0000000000000","OBJECT_ID":"2020-001BB","ARG_OF_PERICENTER":"77.6035","LAUNCH_DATE":"2020-01-07","MEAN_ANOMALY":"282.5106","ELEMENT_SET_NO":"999","REF_FRAME":"TEME","TLE_LINE2":"2 44963  52.9996 100.6523 0001363  77.6035 282.5106 15.07807136 94168","TIME_SYSTEM":"UTC","CLASSIFICATION_TYPE":"U","MEAN_MOTION":"15.07807136","BSTAR":"0.00024417000000","COUNTRY_CODE":"US","MEAN_MOTION_DOT":"0.00003495","SEMIMAJOR_AXIS":"6921.039","NORAD_CAT_ID":"44963","CENTER_NAME":"EARTH","APOAPSIS":"543.848","GP_ID":"184597512","EPOCH":"2021-09-12T21:00:30.228768","RA_OF_ASC_NODE":"100.6523","OBJECT_TYPE":"PAYLOAD","ECCENTRICITY":"0.00013630"},{"EPOCH":"2021-09-12T21:14:01.497984","OBJECT_TYPE":"PAYLOAD","RA_OF_ASC_NODE":"103.5121","ECCENTRICITY":"0.00018200","GP_ID":"184598764","APOAPSIS":"548.511","SEMIMAJOR_AXIS":"6925.385","NORAD_CAT_ID":"44964","CENTER_NAME":"EARTH","COUNTRY_CODE":"US","MEAN_MOTION_DOT":"-0.00000511","MEAN_MOTION":"15.06388037","BSTAR":"-0.00001542400000","TLE_LINE2":"2 44964  53.0555 103.5121 0001820  80.3620 279.7574 15.06388037 93403","TIME_SYSTEM":"UTC","CLASSIFICATION_TYPE":"U","ELEMENT_SET_NO":"999","REF_FRAME":"TEME","ARG_OF_PERICENTER":"80.3620","LAUNCH_DATE":"2020-01-07","MEAN_ANOMALY":"279.7574","MEAN_MOTION_DDOT":"0.0000000000000","OBJECT_ID":"2020-001BC","INCLINATION":"53.0555","PERIAPSIS":"545.990","EPHEMERIS_TYPE":"0","DECAY_DATE":null,"OBJECT_NAME":"STARLINK-1086","REV_AT_EPOCH":"9340","SITE":"AFETR","PERIOD":"95.593","FILE":"3114195","RCS_SIZE":"LARGE","MEAN_ELEMENT_THEORY":"SGP4","TLE_LINE1":"1 44964U 20001BC  21255.88473956 -.00000511  00000-0 -15424-4 0  9994"},{"EPOCH":"2021-09-12T20:10:19.751232","OBJECT_TYPE":"PAYLOAD","RA_OF_ASC_NODE":"103.7018","ECCENTRICITY":"0.00014960","GP_ID":"184598501","APOAPSIS":"548.258","NORAD_CAT_ID":"44966","SEMIMAJOR_AXIS":"6925.357","CENTER_NAME":"EARTH","COUNTRY_CODE":"US","MEAN_MOTION_DOT":"0.00001425","MEAN_MOTION":"15.06397240","BSTAR":"0.00011454000000","TLE_LINE2":"2 44966  53.0541 103.7018 0001496  97.4939 262.6220 15.06397240 93391","TIME_SYSTEM":"UTC","CLASSIFICATION_TYPE":"U","ELEMENT_SET_NO":"999","REF_FRAME":"TEME","LAUNCH_DATE":"2020-01-07","ARG_OF_PERICENTER":"97.4939","MEAN_ANOMALY":"262.6220","MEAN_MOTION_DDOT":"0.0000000000000","OBJECT_ID":"2020-001BE","INCLINATION":"53.0541","EPHEMERIS_TYPE":"0","PERIAPSIS":"546.186","DECAY_DATE":null,"OBJECT_NAME":"STARLINK-1088","REV_AT_EPOCH":"9339","PERIOD":"95.592","SITE":"AFETR","FILE":"3114195","RCS_SIZE":"LARGE","MEAN_ELEMENT_THEORY":"SGP4","TLE_LINE1":"1 44966U 20001BE  21255.84050638  .00001425  00000-0  11454-3 0  9991"},{"GP_ID":"184597763","ECCENTRICITY":"0.00017260","OBJECT_TYPE":"PAYLOAD","RA_OF_ASC_NODE":"103.6053","EPOCH":"2021-09-12T20:42:10.433664","CENTER_NAME":"EARTH","NORAD_CAT_ID":"44967","SEMIMAJOR_AXIS":"6925.355","APOAPSIS":"548.415","BSTAR":"-0.00003371000000","MEAN_MOTION":"15.06397888","COUNTRY_CODE":"US","MEAN_MOTION_DOT":"-0.00000784","REF_FRAME":"TEME","ELEMENT_SET_NO":"999","CLASSIFICATION_TYPE":"U","TLE_LINE2":"2 44967  53.0546 103.6053 0001726  80.0433 280.0750 15.06397888 93400","TIME_SYSTEM":"UTC","OBJECT_ID":"2020-001BF","MEAN_MOTION_DDOT":"0.0000000000000","MEAN_ANOMALY":"280.0750","ARG_OF_PERICENTER":"80.0433","LAUNCH_DATE":"2020-01-07","DECAY_DATE":null,"PERIAPSIS":"546.025","EPHEMERIS_TYPE":"0","INCLINATION":"53.0546","SITE":"AFETR","PERIOD":"95.592","REV_AT_EPOCH":"9340","OBJECT_NAME":"STARLINK-1089","MEAN_ELEMENT_THEORY":"SGP4","TLE_LINE1":"1 44967U 20001BF  21255.86262076 -.00000784  00000-0 -33710-4 0  9994","RCS_SIZE":"LARGE","FILE":"3114195"},{"ECCENTRICITY":"0.00019760","OBJECT_TYPE":"PAYLOAD","RA_OF_ASC_NODE":"103.6180","EPOCH":"2021-09-12T20:36:51.654816","GP_ID":"184598013","APOAPSIS":"548.586","CENTER_NAME":"EARTH","SEMIMAJOR_AXIS":"6925.352","NORAD_CAT_ID":"44968","COUNTRY_CODE":"US","MEAN_MOTION_DOT":"0.00001750","BSTAR":"0.00013635000000","MEAN_MOTION":"15.06398839","CLASSIFICATION_TYPE":"U","TIME_SYSTEM":"UTC","TLE_LINE2":"2 44968  53.0542 103.6180 0001976  86.3101 273.8114 15.06398839 93407","REF_FRAME":"TEME","ELEMENT_SET_NO":"999","MEAN_ANOMALY":"273.8114","LAUNCH_DATE":"2020-01-07","ARG_OF_PERICENTER":"86.3101","OBJECT_ID":"2020-001BG","MEAN_MOTION_DDOT":"0.0000000000000","INCLINATION":"53.0542","DECAY_DATE":null,"PERIAPSIS":"545.849","EPHEMERIS_TYPE":"0","REV_AT_EPOCH":"9340","OBJECT_NAME":"STARLINK-1090","SITE":"AFETR","PERIOD":"95.592","FILE":"3114195","TLE_LINE1":"1 44968U 20001BG  21255.85893119  .00001750  00000-0  13635-3 0  9997","MEAN_ELEMENT_THEORY":"SGP4","RCS_SIZE":"LARGE"},{"INCLINATION":"53.0542","EPHEMERIS_TYPE":"0","PERIAPSIS":"545.782","DECAY_DATE":null,"LAUNCH_DATE":"2020-01-07","ARG_OF_PERICENTER":"84.1797","MEAN_ANOMALY":"275.9427","MEAN_MOTION_DDOT":"0.0000000000000","OBJECT_ID":"2020-001BH","FILE":"3114195","RCS_SIZE":"LARGE","MEAN_ELEMENT_THEORY":"SGP4","TLE_LINE1":"1 44969U 20001BH  21255.85155808  .00001511  00000-0  12030-3 0  9997","OBJECT_NAME":"STARLINK-1092","REV_AT_EPOCH":"9339","PERIOD":"95.592","SITE":"AFETR","APOAPSIS":"548.638","NORAD_CAT_ID":"44969","SEMIMAJOR_AXIS":"6925.345","CENTER_NAME":"EARTH","EPOCH":"2021-09-12T20:26:14.618112","RA_OF_ASC_NODE":"103.6524","OBJECT_TYPE":"PAYLOAD","ECCENTRICITY":"0.00020620","GP_ID":"184598264","TIME_SYSTEM":"UTC","TLE_LINE2":"2 44969  53.0542 103.6524 0002062  84.1797 275.9427 15.06401271 93397","CLASSIFICATION_TYPE":"U","ELEMENT_SET_NO":"999","REF_FRAME":"TEME","MEAN_MOTION_DOT":"0.00001511","COUNTRY_CODE":"US","MEAN_MOTION":"15.06401271","BSTAR":"0.00012030000000"},{"BSTAR":"0.00010760000000","MEAN_MOTION":"15.06401238","MEAN_MOTION_DOT":"0.00001321","COUNTRY_CODE":"US","REF_FRAME":"TEME","ELEMENT_SET_NO":"999","CLASSIFICATION_TYPE":"U","TLE_LINE2":"2 44970  53.0570 103.4550 0001913  85.9982 274.1226 15.06401238 93397","TIME_SYSTEM":"UTC","GP_ID":"184599002","ECCENTRICITY":"0.00019130","RA_OF_ASC_NODE":"103.4550","OBJECT_TYPE":"PAYLOAD","EPOCH":"2021-09-12T21:29:55.989024","CENTER_NAME":"EARTH","SEMIMAJOR_AXIS":"6925.345","NORAD_CAT_ID":"44970","APOAPSIS":"548.535","SITE":"AFETR","PERIOD":"95.592","REV_AT_EPOCH":"9339","OBJECT_NAME":"STARLINK-1093","MEAN_ELEMENT_THEORY":"SGP4","TLE_LINE1":"1 44970U 20001BJ  21255.89578691  .00001321  00000-0  10760-3 0  9999","RCS_SIZE":"LARGE","FILE":"3114195","OBJECT_ID":"2020-001BJ","MEAN_MOTION_DDOT":"0.0000000000000","MEAN_ANOMALY":"274.1226","ARG_OF_PERICENTER":"85.9982","LAUNCH_DATE":"2020-01-07","DECAY_DATE":null,"EPHEMERIS_TYPE":"0","PERIAPSIS":"545.885","INCLINATION":"53.0570"},{"INCLINATION":"53.0187","EPHEMERIS_TYPE":"0","PERIAPSIS":"279.365","DECAY_DATE":null,"MEAN_ANOMALY":"59.9532","LAUNCH_DATE":"2020-01-07","ARG_OF_PERICENTER":"300.0464","MEAN_MOTION_DDOT":"0.0004686100000","OBJECT_ID":"2020-001BK","FILE":"3114195","RCS_SIZE":"LARGE","TLE_LINE1":"1 44971U 20001BK  21255.81669966  .01001162  46861-3  24250-2 0  9998","MEAN_ELEMENT_THEORY":"SGP4","OBJECT_NAME":"STARLINK-1095","REV_AT_EPOCH":"9409","PERIOD":"90.241","SITE":"AFETR","APOAPSIS":"293.214","NORAD_CAT_ID":"44971","SEMIMAJOR_AXIS":"6664.425","CENTER_NAME":"EARTH","OBJECT_TYPE":"PAYLOAD","RA_OF_ASC_NODE":"52.6790","EPOCH":"2021-09-12T19:36:02.850624","ECCENTRICITY":"0.00103900","GP_ID":"184597263","CLASSIFICATION_TYPE":"U","TIME_SYSTEM":"UTC","TLE_LINE2":"2 44971  53.0187  52.6790 0010390 300.0464  59.9532 15.95727591 94096","ELEMENT_SET_NO":"999","REF_FRAME":"TEME","COUNTRY_CODE":"US","MEAN_MOTION_DOT":"0.01001162","MEAN_MOTION":"15.95727591","BSTAR":"0.00242500000000"},{"ECCENTRICITY":"0.00023940","EPOCH":"2021-09-12T20:47:29.136480","RA_OF_ASC_NODE":"103.5848","OBJECT_TYPE":"PAYLOAD","GP_ID":"184597513","APOAPSIS":"548.892","CENTER_NAME":"EARTH","SEMIMAJOR_AXIS":"6925.369","NORAD_CAT_ID":"44972","COUNTRY_CODE":"US","MEAN_MOTION_DOT":"-0.00000466","BSTAR":"-0.00001238400000","MEAN_MOTION":"15.06393447","TLE_LINE2":"2 44972  53.0535 103.5848 0002394  81.9731 278.1529 15.06393447 93407","TIME_SYSTEM":"UTC","CLASSIFICATION_TYPE":"U","REF_FRAME":"TEME","ELEMENT_SET_NO":"999","ARG_OF_PERICENTER":"81.9731","LAUNCH_DATE":"2020-01-07","MEAN_ANOMALY":"278.1529","OBJECT_ID":"2020-001BL","MEAN_MOTION_DDOT":"0.0000000000000","INCLINATION":"53.0535","DECAY_DATE":null,"EPHEMERIS_TYPE":"0","PERIAPSIS":"545.576","REV_AT_EPOCH":"9340","OBJECT_NAME":"STARLINK-1107","PERIOD":"95.593","SITE":"AFETR","FILE":"3114195","TLE_LINE1":"1 44972U 20001BL  21255.86630945 -.00000466  00000-0 -12384-4 0  9995","MEAN_ELEMENT_THEORY":"SGP4","RCS_SIZE":"LARGE"},{"NORAD_CAT_ID":"44973","SEMIMAJOR_AXIS":"6925.370","CENTER_NAME":"EARTH","APOAPSIS":"548.634","GP_ID":"184598765","RA_OF_ASC_NODE":"103.3871","OBJECT_TYPE":"PAYLOAD","EPOCH":"2021-09-12T21:51:10.497888","ECCENTRICITY":"0.00020210","ELEMENT_SET_NO":"999","REF_FRAME":"TEME","CLASSIFICATION_TYPE":"U","TLE_LINE2":"2 44973  53.0549 103.3871 0002021  81.2679 278.8538 15.06393058 93403","TIME_SYSTEM":"UTC","MEAN_MOTION":"15.06393058","BSTAR":"-0.00003140000000","MEAN_MOTION_DOT":"-0.00000749","COUNTRY_CODE":"US","EPHEMERIS_TYPE":"0","PERIAPSIS":"545.835","DECAY_DATE":null,"INCLINATION":"53.0549","MEAN_MOTION_DDOT":"0.0000000000000","OBJECT_ID":"2020-001BM","MEAN_ANOMALY":"278.8538","ARG_OF_PERICENTER":"81.2679","LAUNCH_DATE":"2020-01-07","RCS_SIZE":"LARGE","MEAN_ELEMENT_THEORY":"SGP4","TLE_LINE1":"1 44973U 20001BM  21255.91053817 -.00000749  00000-0 -31400-4 0  9993","FILE":"3114195","PERIOD":"95.593","SITE":"AFETR","OBJECT_NAME":"STARLINK-1115","REV_AT_EPOCH":"9340"}];
